IRIDIUM 171             
1 43929U 19002H   25058.10748190  .00000565  00000+0  19463-3 0  9990
2 43929  86.4034 192.3490 0001832  85.4634 274.6771 14.34221521320864
IRIDIUM 170             
1 43930U 19002J   25057.66311315  .00003377  00000+0  53128-3 0  9997
2 43930  86.6148 192.3091 0002443  90.4656 269.6841 14.72264747329297
IRIDIUM 167             
1 43931U 19002K   25057.75230097  .00000284  00000+0  94415-4 0  9994
2 43931  86.4026 192.2622 0002167  85.2035 274.9408 14.34219606320815
IRIDIUM 181             
1 56726U 23068S   25057.78415202  .00000308  00000+0  85448-4 0  9996
2 56726  86.4455 255.3491 0001973  76.5537 283.5883 14.43318550 93869
IRIDIUM 177             
1 56727U 23068T   25057.74527991  .00004360  00000+0  57025-3 0  9993
2 56727  86.2011 194.4996 0002522  88.2183 271.9327 14.80228247 96037
IRIDIUM 174             
1 56728U 23068U   25057.46944977  .00005134  00000+0  67202-3 0  9998
2 56728  86.2019 194.7544 0001716  91.7409 268.4009 14.80228975 95992
IRIDIUM 178             
1 56729U 23068V   25057.80202054  .00001456  00000+0  18821-3 0  9996
2 56729  86.5770 224.0855 0001415  82.7746 277.3636 14.80241327 96040
IRIDIUM 179             
1 56730U 23068W   25057.79660892  .00001405  00000+0  18152-3 0  9995
2 56730  86.6766 231.4235 0001946  92.8765 267.2679 14.80233062 96046
